[{"OBJECT_NAME":"STARLINK-3826","OBJECT_ID":"2022-045S","EPOCH":"2026-03-09T15:40:26.978592","MEAN_MOTION":15.08845535,"ECCENTRICITY":0.00014177,"INCLINATION":53.2167,"RA_OF_ASC_NODE":199.2929,"ARG_OF_PERICENTER":91.9647,"MEAN_ANOMALY":268.1507,"EPHEMERIS_TYPE":0,"CLASSIFICATION_TYPE":"U","NORAD_CAT_ID":52347,"ELEMENT_SET_NO":999,"REV_AT_EPOCH":21577,"BSTAR":4.7383762e-5,"MEAN_MOTION_DOT":4.66e-6,"MEAN_MOTION_DDOT":0},{"OBJECT_NAME":"COSMOS 2084","OBJECT_ID":"1990-055A","EPOCH":"2026-03-09T23:42:10.320480","MEAN_MOTION":15.05654003,"ECCENTRICITY":0.00170188,"INCLINATION":62.7921,"RA_OF_ASC_NODE":334.5624,"ARG_OF_PERICENTER":190.1371,"MEAN_ANOMALY":169.9389,"EPHEMERIS_TYPE":0,"CLASSIFICATION_TYPE":"U","NORAD_CAT_ID":20663,"ELEMENT_SET_NO":999,"REV_AT_EPOCH":93636,"BSTAR":0.00023056361,"MEAN_MOTION_DOT":3.154e-5,"MEAN_MOTION_DDOT":0}]
